GLOBALSTAR M057         
1 25943U 99058A   24307.81777735 -.00000094  00000+0 -68526-5 0  9991
2 25943  51.9983 270.6272 0002107 286.1201  73.9416 12.24801998139193
GLOBALSTAR M059         
1 25944U 99058B   24307.67815310 -.00000072  00000+0  17832-3 0  9995
2 25944  52.0000  99.9454 0000962 119.1962 254.0739 11.99968358546856
GLOBALSTAR M056         
1 25945U 99058C   24307.75170825 -.00000014  00000+0  85748-3 0  9997
2 25945  51.9943 107.5179 0001977  96.6379 276.4420 12.04778179135338
GLOBALSTAR M031         
1 25946U 99058D   24307.90198463 -.00000127  00000+0 -37479-3 0  9997
2 25946  51.9993  12.9877 0001749  89.0255  82.3388 12.16021118137015
GLOBALSTAR M039         
1 25961U 99062A   24307.78731082 -.00000023  00000+0  45149-3 0  9992
2 25961  51.9843 238.2771 0002095 197.3451 162.7344 12.62308925151621
GLOBALSTAR M034         
1 25962U 99062B   24307.74884078 -.00000042  00000+0  62506-3 0  9990
2 25962  51.9870 239.9923 0014254 336.7066  53.5493 11.79435333111674
GLOBALSTAR M029         
1 25963U 99062C   24307.87506455 -.00000035  00000+0  63086-3 0  9991
2 25963  51.9832 347.6473 0002622  37.9033 133.0719 11.99885938141951
